NOAA 11 [-]             
1 19531U 88089A   22274.88064329  .00000060  00000+0  51940-4 0  9997
2 19531  98.4351 258.1638 0010214 228.4798 131.5501 14.15324173755871
NOAA 12 [-]             
1 21263U 91032A   22274.86404243  .00000110  00000+0  63875-4 0  9991
2 21263  98.5205 271.7304 0014263  32.2788 327.9262 14.26013262631890
NOAA 13 [-]             
1 22739U 93050A   22274.88681085  .00000138  00000+0  96268-4 0  9997
2 22739  98.5171 249.4363 0010360  43.5453 316.6536 14.12864878502085
NOAA 14 [-]             
1 23455U 94089A   22274.89374444  .00000027  00000+0  35630-4 0  9998
2 23455  98.4432 295.8190 0009896  25.1796 334.9859 14.14210553431754
NOAA 15 [B]             
1 25338U 98030A   22274.84998742  .00000147  00000+0  79718-4 0  9996
2 25338  98.6372 302.9602 0010110 353.7557   6.3496 14.26175937268186
NOAA 16 [-]             
1 26536U 00055A   22274.87174697  .00000079  00000+0  64312-4 0  9993
2 26536  98.6250 330.0462 0009866 216.8909 143.1586 14.13346019432386
NOAA 17 [-]             
1 27453U 02032A   22274.86904663  .00000154  00000+0  84134-4 0  9990
2 27453  98.6802 218.9252 0011268 327.6825  32.3663 14.25145445 54014
NOAA 18 [B]             
1 28654U 05018A   22274.79436125  .00000192  00000+0  12722-3 0  9991
2 28654  98.9402 345.1027 0014667  34.9115 325.3016 14.12782751894995
NOAA 19 [+]             
1 33591U 09005A   22274.80769135  .00000181  00000+0  12259-3 0  9992
2 33591  99.1390 311.1361 0013027 247.7289 112.2501 14.12615439703202
SUOMI NPP [+]           
1 37849U 11061A   22274.83591153  .00000104  00000+0  70157-4 0  9990
2 37849  98.7382 211.9354 0001088  78.9075 301.8322 14.19546910566273
NOAA 20 [+]             
1 43013U 17073A   22274.79588679  .00000096  00000+0  66112-4 0  9999
2 43013  98.7221 211.7090 0001618  93.8375 266.2986 14.19546310252319
CELESTIS-02             
1 25160U 98007D   22274.85137904  .00000020  00000+0  66668-4 0  9999
2 25160 107.9893 121.0172 0064361 287.7059  82.7714 14.21648598277985
CELESTIS-03             
1 26034U 99070C   22274.79913177  .00027414  00000+0  11966-2 0  9993
2 26034  98.3114 291.5834 0011361 121.5195 238.7150 15.22057069237231
O3B FM5                 
1 39188U 13031A   22274.41919273 -.00000017  00000+0  00000+0 0  9997
2 39188   0.0631  17.3088 0002631 176.8530 165.8361  5.00115271169266
O3B FM4                 
1 39189U 13031B   22274.67509544 -.00000018  00000+0  00000+0 0  9993
2 39189   0.0516 351.8016 0002585 202.2413 165.9551  5.00115768169294
O3B FM2                 
1 39190U 13031C   22274.56660884 -.00000018  00000+0  00000+0 0  9998
2 39190   0.0520 346.1968 0002620 207.2911 166.5104  5.00115351169347
O3B PFM                 
1 39191U 13031D   22274.59292124 -.00000018  00000+0  00000+0 0  9990
2 39191   0.0570  11.1241 0002651 179.8155 169.0600  5.00115635168909
O3B FM3                 
1 40079U 14038A   22274.44780926 -.00000017  00000+0  00000+0 0  9990
2 40079   0.0542 359.7545 0004879 175.2170 185.0387  5.00115299145275
O3B FM7                 
1 40080U 14038B   22274.59377039 -.00000018  00000+0  00000+0 0  9996
2 40080   0.0565 355.8222 0001808 240.2824 123.8835  5.00115427150119
O3B FM6                 
1 40081U 14038C   22274.62014980 -.00000018  00000+0  00000+0 0  9994
2 40081   0.0532 359.1759 0002714 192.0722 168.7511  5.00115290150065
O3B FM8                 
1 40082U 14038D   22274.67406777 -.00000018  00000+0  00000+0 0  9999
2 40082   0.0513 356.3947 0002640 192.2757 171.3302  5.00115605150182
O3B FM10                
1 40348U 14083A   22274.70013912 -.00000018  00000+0  00000+0 0  9993
2 40348   0.0523   8.8883 0002634 181.6406 169.4707  5.00115068142138
O3B FM11                
1 40349U 14083B   22274.31380602 -.00000017  00000+0  00000+0 0  9993
2 40349   0.0569   7.8062 0002565 199.3131 152.8727  5.00115341142133
O3B FM12                
1 40350U 14083C   22274.74079905 -.00000018  00000+0  00000+0 0  9994
2 40350   0.0561   7.1374 0002770 186.6917 166.1685  5.00115213142167
O3B FM9                 
1 40351U 14083D   22274.36788677 -.00000017  00000+0  00000+0 0  9995
2 40351   0.0580   7.8602 0002607 183.8360 168.3032  5.00116070142296
DIAMOND RED             
1 42783U 17036U   22274.85332260  .00012843  00000+0  45694-3 0  9995
2 42783  97.1900 312.0405 0008623 318.9849  41.0743 15.29062947293196
DIAMOND GREEN           
1 42785U 17036W   22274.85403797  .00013428  00000+0  47761-3 0  9998
2 42785  97.1902 312.1048 0008416 320.5023  39.5604 15.29064797293268
DIAMOND BLUE            
1 42786U 17036X   22274.85314243  .00013308  00000+0  47345-3 0  9991
2 42786  97.1899 312.0958 0008499 321.0900  38.9728 15.29058011293266
LEO VANTAGE 1           
1 43113U 18004C   22274.87589673  .00003891  00000+0  31627-3 0  9997
2 43113  99.2424   6.2772 0399613 231.4629 125.0115 14.54184134239707
O3B FM15                
1 43231U 18024A   22274.43382647 -.00000017  00000+0  00000+0 0  9999
2 43231   0.0490  10.3016 0002940 182.5424 167.1539  5.00115947 83252
O3B FM16                
1 43232U 18024B   22274.68710920 -.00000018  00000+0  00000+0 0  9997
2 43232   0.0457  13.3998 0002919 180.2876 166.3099  5.00115835 83180
O3B FM14                
1 43233U 18024C   22274.72676277 -.00000018  00000+0  00000+0 0  9999
2 43233   0.0442  13.7762 0002770 182.4042 163.8160  5.00115257 83181
O3B FM13                
1 43234U 18024D   22274.38049839 -.00000017  00000+0  00000+0 0  9999
2 43234   0.0570  22.3886 0003715 175.8700 161.7335  5.00115003 83296
O3B FM20                
1 44112U 19020A   22274.75346916 -.00000018  00000+0  00000+0 0  9990
2 44112   0.0519   8.2555 0003105 191.3776 160.3601  5.00115372 63816
O3B FM19                
1 44113U 19020B   22274.38049864 -.00000017  00000+0  00000+0 0  9991
2 44113   0.0716  20.0893 0001660 194.3593 145.5461  5.00115072 63666
O3B FM17                
1 44114U 19020C   22274.66088447 -.00000018  00000+0  00000+0 0  9994
2 44114   0.0358 353.5245 0003059 200.0045 166.4680  5.00115494 63769
O3B FM18                
1 44115U 19020D   22274.80728801 -.00000018  00000+0  00000+0 0  9996
2 44115   0.0522   8.5150 0002887 182.6381 168.8457  5.00115706 63888
SALSAT                  
1 46495U 20068K   22274.82911767  .00003613  00000+0  25902-3 0  9995
2 46495  97.7370 216.2233 0014283 278.5638  81.3970 15.04937850110180
ISS (ZARYA)             
1 25544U 98067A   22275.03521722  .00046746  00000+0  83199-3 0  9999
2 25544  51.6418 167.2146 0003169 263.1060 229.2717 15.49661688361757
AEROCUBE 12A            
1 43556U 18046C   22274.59562641  .00030844  00000+0  69029-3 0  9994
2 43556  51.6371  25.0487 0006619  53.2108 306.9484 15.43175092235680
AEROCUBE 12B            
1 43557U 18046D   22274.62859401  .00022248  00000+0  55119-3 0  9996
2 43557  51.6379  31.1835 0006954  52.6892 307.4725 15.40298757235550
LEMUR-2-VU              
1 43558U 18046E   22274.49011843  .00052885  00000+0  79802-3 0  9997
2 43558  51.6367   0.8532 0007188  48.3889 311.7717 15.54199598235998
LEMUR-2-ALEXANDER       
1 43559U 18046F   22274.48371478  .00102994  00000+0  13894-2 0  9995
2 43559  51.6381 357.8500 0005692  53.4837 306.6678 15.56961980235817
LEMUR-2-YUASA           
1 43560U 18046G   22274.61727873  .00096068  00000+0  13598-2 0  9991
2 43560  51.6390   0.2178 0005105  60.5068 299.6432 15.55699961236011
LEMUR-2-TOMHENDERSON    
1 43561U 18046H   22274.51379735  .00051532  00000+0  84824-3 0  9999
2 43561  51.6401   5.4780 0005533  63.0215 297.1339 15.51812215235493
STPSAT-4                
1 45043U 98067QY  22273.96501120  .01719279  11825-4  91623-3 0  9997
2 45043  51.6256 103.6816 0009135 278.1001  81.8980 16.19135592152267
ICS-EF (ISS DEB)        
1 45265U 98067RJ  22274.85427697  .00041768  00000+0  37233-3 0  9993
2 45265  51.6348 133.2288 0004517 224.2832 135.7803 15.68005594148304
RED-EYE 2 (MERLOT)      
1 45800U 98067RM  22274.83885753  .00127947  00000+0  55384-3 0  9998
2 45800  51.6350 116.6216 0004266 231.6470 128.4150 15.83992694130385
RED-EYE 3 (CABERNET)    
1 45809U 98067RN  22274.84267882  .00127018  00000+0  55106-3 0  9996
2 45809  51.6369 116.6624 0004642 231.5691 128.4896 15.83946100129363
ISS DEB                 
1 47853U 98067RZ  22274.85101749  .00012452  00000+0  18514-3 0  9994
2 47853  51.6399 159.5977 0002234  61.4210 298.7005 15.55566527 88464
MMSATS-1                
1 47976U 98067SJ  22274.91188122  .00037455  00000+0  39110-3 0  9992
2 47976  51.6394 148.4894 0001667 105.8866 344.5466 15.64112119 86899
CSS (TIANHE)            
1 48274U 21035A   22274.44304861  .00008732  00000+0  10300-3 0  9999
2 48274  41.4721 291.4733 0002902 308.0624 195.7218 15.61467698 81387
ISS DEB                 
1 48833U 98067SK  22274.87090990  .00117285  00000+0  69602-3 0  9994
2 48833  51.6288 139.3090 0002275 192.3650 167.7295 15.77161568 75876
RAMSAT                  
1 48850U 98067SL  22274.87634721  .00563345  15403-3  97915-3 0  9996
2 48850  51.6280 125.7173 0006708 236.1731 123.8641 16.01598077 74166
ISS (NAUKA)             
1 49044U 21066A   22274.46188292  .00014869  00000+0  26380-3 0  9992
2 49044  51.6447 170.0519 0002623 316.7478 215.0466 15.50450812361669
FREGAT DEB              
1 49271U 11037PF  22274.37367014  .00029753  00000+0  71655-1 0  9993
2 49271  51.7159 304.8161 1066515 258.4878  89.4520 11.96698639 59811
BINAR-1                 
1 49272U 98067SR  22273.53712133  .09259409  12338-4  77110-3 0  9993
2 49272  51.6113 133.8495 0008718 259.8641 100.1402 16.38718671 56327
1998-067TD              
1 51441U 98067TD  22274.83500143  .00154895  00000+0  92053-3 0  9999
2 51441  51.6294 148.0944 0005891 241.1951 118.8458 15.76981426 38869
PATCOOL                 
1 51442U 98067TE  22274.85154023  .00145820  00000+0  86287-3 0  9994
2 51442  51.6325 147.4257 0005172 241.3239 118.7242 15.77113629 38838
